ONEWEB-0034             
1 45454U 20020AG  26027.12907930  .00000557  00000+0  15349-2 0  9994
2 45454  87.8818  49.1289 0001818  92.3407 267.7929 13.11416837284102
ONEWEB-0060             
1 45455U 20020AH  26027.32913547 -.00000040  00000+0 -14953-3 0  9998
2 45455  87.8810  49.1018 0001507  54.9147 305.2122 13.11418810284088
ONEWEB-0086             
1 45456U 20020AJ  26027.07904068 -.00000494  00000+0 -14312-2 0  9990
2 45456  87.8821  49.1362 0001078  85.7665 274.3586 13.11415212284110
ONEWEB-0088             
1 45457U 20020AK  26027.28590340  .00000414  00000+0  11330-2 0  9995
2 45457  87.8832  49.0555 0002038  87.7727 272.3634 13.11414291284077
ONEWEB-0102             
1 47258U 20100A   26027.24768350  .00000101  00000+0  24472-3 0  9994
2 47258  87.8933  18.6620 0001573  85.2981 274.8327 13.12443831246249
ONEWEB-0109             
1 47259U 20100B   26027.25615359  .00000359  00000+0  96116-3 0  9995
2 47259  87.8937  18.6322 0001748  91.4699 268.6630 13.12443324246078
ONEWEB-0110             
1 47260U 20100C   26026.90206976 -.00000082  00000+0 -26372-3 0  9991
2 47260  87.8939  18.6869 0001502  81.7594 278.3705 13.12441336246197
ONEWEB-0111             
1 47261U 20100D   26027.23749538 -.00000219  00000+0 -64504-3 0  9996
2 47261  87.8940  18.6384 0001800  82.5030 277.6303 13.12442049246072
ONEWEB-0114             
1 47262U 20100E   26026.73434942  .00000265  00000+0  70140-3 0  9993
2 47262  87.8941  18.7339 0001921  97.2109 262.9238 13.12442079245963
ONEWEB-0117             
1 47263U 20100F   26027.25954825  .00000455  00000+0  12291-2 0  9992
2 47263  87.8938  18.6250 0001741  86.9244 273.2084 13.12443198246043
ONEWEB-0118             
1 47264U 20100G   26026.98848080 -.00000260  00000+0 -75927-3 0  9999
2 47264  87.8941  18.6800 0002106  92.2696 267.8673 13.12443172246209
ONEWEB-0119             
1 47265U 20100H   26027.24259492 -.00000106  00000+0 -33104-3 0  9993
2 47265  87.8934  18.6591 0001787  87.2185 272.9148 13.12443164246216
ONEWEB-0120             
1 47266U 20100J   26026.50409254  .00000497  00000+0  13471-2 0  9990
2 47266  87.8929  18.8071 0001784  90.1883 269.9451 13.12442968246147
ONEWEB-0121             
1 47267U 20100K   26027.25446322  .00000208  00000+0  54199-3 0  9994
2 47267  87.8939  18.6300 0001630  81.2884 278.8429 13.12444064246158
ONEWEB-0122             
1 47268U 20100L   26026.94411332  .00014846  00000+0  41089-1 0  9998
2 47268  87.8910  18.6962 0001375  75.9944 284.1338 13.12570726246025
ONEWEB-0123             
1 47269U 20100M   26026.93934265  .00000012  00000+0 -17908-5 0  9991
2 47269  87.8933  18.7178 0001905  87.0621 273.0726 13.12443030246166
ONEWEB-0124             
1 47270U 20100N   26026.47173560 -.00000276  00000+0 -80270-3 0  9998
2 47270  87.8929  18.8159 0001784  82.3813 277.7518 13.12442514245984
