[{"OBJECT_NAME":"ONEWEB-0034","OBJECT_ID":"2020-020AG","EPOCH":"2026-01-27T03:05:52.451520","MEAN_MOTION":13.11416837,"ECCENTRICITY":0.0001818,"INCLINATION":87.8818,"RA_OF_ASC_NODE":49.1289,"ARG_OF_PERICENTER":92.3407,"MEAN_ANOMALY":267.7929,"EPHEMERIS_TYPE":0,"CLASSIFICATION_TYPE":"U","NORAD_CAT_ID":45454,"ELEMENT_SET_NO":999,"REV_AT_EPOCH":28410,"BSTAR":0.0015348781,"MEAN_MOTION_DOT":5.57e-6,"MEAN_MOTION_DDOT":0},{"OBJECT_NAME":"ONEWEB-0060","OBJECT_ID":"2020-020AH","EPOCH":"2026-01-27T07:53:57.304608","MEAN_MOTION":13.1141881,"ECCENTRICITY":0.00015075,"INCLINATION":87.881,"RA_OF_ASC_NODE":49.1018,"ARG_OF_PERICENTER":54.9147,"MEAN_ANOMALY":305.2122,"EPHEMERIS_TYPE":0,"CLASSIFICATION_TYPE":"U","NORAD_CAT_ID":45455,"ELEMENT_SET_NO":999,"REV_AT_EPOCH":28408,"BSTAR":-0.00014952732,"MEAN_MOTION_DOT":-4.0e-7,"MEAN_MOTION_DDOT":0},{"OBJECT_NAME":"ONEWEB-0086","OBJECT_ID":"2020-020AJ","EPOCH":"2026-01-27T01:53:49.114752","MEAN_MOTION":13.11415212,"ECCENTRICITY":0.00010785,"INCLINATION":87.8821,"RA_OF_ASC_NODE":49.1362,"ARG_OF_PERICENTER":85.7665,"MEAN_ANOMALY":274.3586,"EPHEMERIS_TYPE":0,"CLASSIFICATION_TYPE":"U","NORAD_CAT_ID":45456,"ELEMENT_SET_NO":999,"REV_AT_EPOCH":28411,"BSTAR":-0.0014311564,"MEAN_MOTION_DOT":-4.94e-6,"MEAN_MOTION_DDOT":0},{"OBJECT_NAME":"ONEWEB-0088","OBJECT_ID":"2020-020AK","EPOCH":"2026-01-27T06:51:42.053760","MEAN_MOTION":13.11414291,"ECCENTRICITY":0.00020386,"INCLINATION":87.8832,"RA_OF_ASC_NODE":49.0555,"ARG_OF_PERICENTER":87.7727,"MEAN_ANOMALY":272.3634,"EPHEMERIS_TYPE":0,"CLASSIFICATION_TYPE":"U","NORAD_CAT_ID":45457,"ELEMENT_SET_NO":999,"REV_AT_EPOCH":28407,"BSTAR":0.0011329526,"MEAN_MOTION_DOT":4.14e-6,"MEAN_MOTION_DDOT":0},{"OBJECT_NAME":"ONEWEB-0102","OBJECT_ID":"2020-100A","EPOCH":"2026-01-27T05:56:39.854400","MEAN_MOTION":13.12443831,"ECCENTRICITY":0.00015735,"INCLINATION":87.8933,"RA_OF_ASC_NODE":18.662,"ARG_OF_PERICENTER":85.2981,"MEAN_ANOMALY":274.8327,"EPHEMERIS_TYPE":0,"CLASSIFICATION_TYPE":"U","NORAD_CAT_ID":47258,"ELEMENT_SET_NO":999,"REV_AT_EPOCH":24624,"BSTAR":0.00024472235,"MEAN_MOTION_DOT":1.01e-6,"MEAN_MOTION_DDOT":0},{"OBJECT_NAME":"ONEWEB-0109","OBJECT_ID":"2020-100B","EPOCH":"2026-01-27T06:08:51.670176","MEAN_MOTION":13.12443324,"ECCENTRICITY":0.00017488,"INCLINATION":87.8937,"RA_OF_ASC_NODE":18.6322,"ARG_OF_PERICENTER":91.4699,"MEAN_ANOMALY":268.663,"EPHEMERIS_TYPE":0,"CLASSIFICATION_TYPE":"U","NORAD_CAT_ID":47259,"ELEMENT_SET_NO":999,"REV_AT_EPOCH":24607,"BSTAR":0.00096115959,"MEAN_MOTION_DOT":3.59e-6,"MEAN_MOTION_DDOT":0},{"OBJECT_NAME":"ONEWEB-0110","OBJECT_ID":"2020-100C","EPOCH":"2026-01-26T21:38:58.827264","MEAN_MOTION":13.12441336,"ECCENTRICITY":0.00015025,"INCLINATION":87.8939,"RA_OF_ASC_NODE":18.6869,"ARG_OF_PERICENTER":81.7594,"MEAN_ANOMALY":278.3705,"EPHEMERIS_TYPE":0,"CLASSIFICATION_TYPE":"U","NORAD_CAT_ID":47260,"ELEMENT_SET_NO":999,"REV_AT_EPOCH":24619,"BSTAR":-0.00026372169,"MEAN_MOTION_DOT":-8.2e-7,"MEAN_MOTION_DDOT":0},{"OBJECT_NAME":"ONEWEB-0111","OBJECT_ID":"2020-100D","EPOCH":"2026-01-27T05:41:59.600832","MEAN_MOTION":13.12442049,"ECCENTRICITY":0.00018004,"INCLINATION":87.894,"RA_OF_ASC_NODE":18.6384,"ARG_OF_PERICENTER":82.503,"MEAN_ANOMALY":277.6303,"EPHEMERIS_TYPE":0,"CLASSIFICATION_TYPE":"U","NORAD_CAT_ID":47261,"ELEMENT_SET_NO":999,"REV_AT_EPOCH":24607,"BSTAR":-0.00064504426,"MEAN_MOTION_DOT":-2.19e-6,"MEAN_MOTION_DDOT":0},{"OBJECT_NAME":"ONEWEB-0114","OBJECT_ID":"2020-100E","EPOCH":"2026-01-26T17:37:27.789888","MEAN_MOTION":13.12442079,"ECCENTRICITY":0.00019213,"INCLINATION":87.8941,"RA_OF_ASC_NODE":18.7339,"ARG_OF_PERICENTER":97.2109,"MEAN_ANOMALY":262.9238,"EPHEMERIS_TYPE":0,"CLASSIFICATION_TYPE":"U","NORAD_CAT_ID":47262,"ELEMENT_SET_NO":999,"REV_AT_EPOCH":24596,"BSTAR":0.00070140196,"MEAN_MOTION_DOT":2.65e-6,"MEAN_MOTION_DDOT":0},{"OBJECT_NAME":"ONEWEB-0117","OBJECT_ID":"2020-100F","EPOCH":"2026-01-27T06:13:44.968800","MEAN_MOTION":13.12443198,"ECCENTRICITY":0.00017413,"INCLINATION":87.8938,"RA_OF_ASC_NODE":18.625,"ARG_OF_PERICENTER":86.9244,"MEAN_ANOMALY":273.2084,"EPHEMERIS_TYPE":0,"CLASSIFICATION_TYPE":"U","NORAD_CAT_ID":47263,"ELEMENT_SET_NO":999,"REV_AT_EPOCH":24604,"BSTAR":0.0012291357,"MEAN_MOTION_DOT":4.55e-6,"MEAN_MOTION_DDOT":0},{"OBJECT_NAME":"ONEWEB-0118","OBJECT_ID":"2020-100G","EPOCH":"2026-01-26T23:43:24.741120","MEAN_MOTION":13.12443172,"ECCENTRICITY":0.00021065,"INCLINATION":87.8941,"RA_OF_ASC_NODE":18.68,"ARG_OF_PERICENTER":92.2696,"MEAN_ANOMALY":267.8673,"EPHEMERIS_TYPE":0,"CLASSIFICATION_TYPE":"U","NORAD_CAT_ID":47264,"ELEMENT_SET_NO":999,"REV_AT_EPOCH":24620,"BSTAR":-0.00075927001,"MEAN_MOTION_DOT":-2.6e-6,"MEAN_MOTION_DDOT":0},{"OBJECT_NAME":"ONEWEB-0119","OBJECT_ID":"2020-100H","EPOCH":"2026-01-27T05:49:20.201088","MEAN_MOTION":13.12443164,"ECCENTRICITY":0.0001787,"INCLINATION":87.8934,"RA_OF_ASC_NODE":18.6591,"ARG_OF_PERICENTER":87.2185,"MEAN_ANOMALY":272.9148,"EPHEMERIS_TYPE":0,"CLASSIFICATION_TYPE":"U","NORAD_CAT_ID":47265,"ELEMENT_SET_NO":999,"REV_AT_EPOCH":24621,"BSTAR":-0.00033103608,"MEAN_MOTION_DOT":-1.06e-6,"MEAN_MOTION_DDOT":0},{"OBJECT_NAME":"ONEWEB-0120","OBJECT_ID":"2020-100J","EPOCH":"2026-01-26T12:05:53.595456","MEAN_MOTION":13.12442968,"ECCENTRICITY":0.00017849,"INCLINATION":87.8929,"RA_OF_ASC_NODE":18.8071,"ARG_OF_PERICENTER":90.1883,"MEAN_ANOMALY":269.9451,"EPHEMERIS_TYPE":0,"CLASSIFICATION_TYPE":"U","NORAD_CAT_ID":47266,"ELEMENT_SET_NO":999,"REV_AT_EPOCH":24614,"BSTAR":0.0013470878,"MEAN_MOTION_DOT":4.97e-6,"MEAN_MOTION_DDOT":0},{"OBJECT_NAME":"ONEWEB-0121","OBJECT_ID":"2020-100K","EPOCH":"2026-01-27T06:06:25.622208","MEAN_MOTION":13.12444064,"ECCENTRICITY":0.000163,"INCLINATION":87.8939,"RA_OF_ASC_NODE":18.63,"ARG_OF_PERICENTER":81.2884,"MEAN_ANOMALY":278.8429,"EPHEMERIS_TYPE":0,"CLASSIFICATION_TYPE":"U","NORAD_CAT_ID":47267,"ELEMENT_SET_NO":999,"REV_AT_EPOCH":24615,"BSTAR":0.00054198762,"MEAN_MOTION_DOT":2.08e-6,"MEAN_MOTION_DDOT":0},{"OBJECT_NAME":"ONEWEB-0122","OBJECT_ID":"2020-100L","EPOCH":"2026-01-26T22:39:31.390848","MEAN_MOTION":13.12570726,"ECCENTRICITY":0.00013752,"INCLINATION":87.891,"RA_OF_ASC_NODE":18.6962,"ARG_OF_PERICENTER":75.9944,"MEAN_ANOMALY":284.1338,"EPHEMERIS_TYPE":0,"CLASSIFICATION_TYPE":"U","NORAD_CAT_ID":47268,"ELEMENT_SET_NO":999,"REV_AT_EPOCH":24602,"BSTAR":0.041089295,"MEAN_MOTION_DOT":0.00014846,"MEAN_MOTION_DDOT":0},{"OBJECT_NAME":"ONEWEB-0123","OBJECT_ID":"2020-100M","EPOCH":"2026-01-26T22:32:39.204960","MEAN_MOTION":13.1244303,"ECCENTRICITY":0.00019052,"INCLINATION":87.8933,"RA_OF_ASC_NODE":18.7178,"ARG_OF_PERICENTER":87.0621,"MEAN_ANOMALY":273.0726,"EPHEMERIS_TYPE":0,"CLASSIFICATION_TYPE":"U","NORAD_CAT_ID":47269,"ELEMENT_SET_NO":999,"REV_AT_EPOCH":24616,"BSTAR":-1.790797e-6,"MEAN_MOTION_DOT":1.2e-7,"MEAN_MOTION_DDOT":0},{"OBJECT_NAME":"ONEWEB-0124","OBJECT_ID":"2020-100N","EPOCH":"2026-01-26T11:19:17.955840","MEAN_MOTION":13.12442514,"ECCENTRICITY":0.0001784,"INCLINATION":87.8929,"RA_OF_ASC_NODE":18.8159,"ARG_OF_PERICENTER":82.3813,"MEAN_ANOMALY":277.7518,"EPHEMERIS_TYPE":0,"CLASSIFICATION_TYPE":"U","NORAD_CAT_ID":47270,"ELEMENT_SET_NO":999,"REV_AT_EPOCH":24598,"BSTAR":-0.00080269706,"MEAN_MOTION_DOT":-2.76e-6,"MEAN_MOTION_DDOT":0}]
